HULIANWANG DIGUI-122    
1 67062U 25295D   25362.54608616  .00000128  00000+0  12296-3 0  9991
2 67062  50.0051 305.5191 0013076 308.2096  51.7639 14.24612257  2370
HULIANWANG DIGUI-123    
1 67063U 25295E   25362.54508251  .00000232  00000+0  16746-3 0  9996
2 67063  50.0056 305.5164 0012021 307.7102  52.2721 14.24618016  2374
HULIANWANG DIGUI-124    
1 67064U 25295F   25362.61427429  .00000271  00000+0  18424-3 0  9990
2 67064  50.0015 305.1991 0011893 301.5371  58.4380 14.24622137  2389
HULIANWANG DIGUI-125    
1 67065U 25295G   25362.61321970  .00000205  00000+0  15602-3 0  9997
2 67065  50.0007 305.1905 0012004 309.5785  50.4067 14.24629747  2386
HULIANWANG DIGUI-126    
1 67066U 25295H   25362.61227309  .00000251  00000+0  17560-3 0  9995
2 67066  50.0010 305.1853 0011299 302.8237  57.1588 14.24650122  2389
HULIANWANG DIGUI-127    
1 67067U 25295J   25362.61131456 -.00001083  00000+0 -39435-3 0  9994
2 67067  50.0050 305.1895 0010742 309.4278  50.5684 14.24666260  2384
CZ-12 R/B               
1 67068U 25295K   25362.57520599  .00000003  00000+0  51601-4 0  9999
2 67068  49.9942 303.6321 0056876 192.6561 167.2934 14.41131427  2390
XIWANG-5 02             
1 67069U 25296A   25357.50051046  .00011945  00000+0  60249-3 0  9998
2 67069  41.3523  40.1941 0014556 102.8792 257.3656 15.16891516  1599
DEAR-5                  
1 67070U 25296B   25362.43767350  .00007527  00000+0  38259-3 0  9997
2 67070  41.3575  12.0243 0018839 130.4884 229.7582 15.16930950  2338
RAISE-4                 
1 67073U 25297B   25362.49998650  .00007611  00000+0  50764-3 0  9995
2 67073  97.4854 149.6243 0011681 261.7882  98.2021 15.07274721  2169
ELECTRON KICK STAGE R/B 
1 67074U 25297C   25362.42312089  .00421930  51895-4  20187-2 0  9997
2 67074  97.4803 150.6670 0181930 212.6236 146.3680 15.62333598  2225
STARLINK-36230          
1 67075U 25298A   25362.58335648 -.01707797  00000+0 -17259-1 0  9995
2 67075  69.9995 204.9750 0003635 271.5267 190.0289 15.68240460  3523
